ONEWEB-0160             
1 48060U 21025U   23314.58570181 -.00000452  00000+0 -12740-2 0  9994
2 48060  87.8985 149.2038 0001933  51.9427 308.1876 13.13469748128905
ONEWEB-0163             
1 48061U 21025V   23314.79942258 -.00000193  00000+0 -56445-3 0  9999
2 48061  87.8991 149.1544 0001520  97.0911 263.0391 13.13468739129063
ONEWEB-0159             
1 48062U 21025W   23314.78884956  .00000030  00000+0  47793-4 0  9994
2 48062  87.8992 149.1428 0001819  87.5794 272.5543 13.13471175128971
ONEWEB-0164             
1 48063U 21025X   23314.61746193  .00000301  00000+0  78830-3 0  9993
2 48063  87.8993 149.1854 0001327  82.4108 277.7172 13.13469969128932
ONEWEB-0167             
1 48064U 21025Y   23314.57197288 -.00000287  00000+0 -82002-3 0  9995
2 48064  87.8991 149.2036 0001516  91.6116 268.5186 13.13470839128914
ONEWEB-0166             
1 48065U 21025Z   23314.82271139  .00000079  00000+0  18197-3 0  9993
2 48065  87.8987 149.1463 0001739  88.7742 271.3586 13.13471291129024
ONEWEB-0151             
1 48066U 21025AA  23314.82483000 -.00000366  00000+0 -10376-2 0  9997
2 48066  87.8989 149.1542 0001540  75.4435 284.6864 13.13471461128975
ONEWEB-0170             
1 48067U 21025AB  23314.60264650  .00000295  00000+0  77391-3 0  9992
2 48067  87.8991 149.1981 0001236  58.4060 301.7190 13.13469335128894
